POLYGON((36.27048110961914 33.31717300415039, 36.29115676879883 33.326637268066406, 36.27048110961914 33.39885330200195, 36.27048110961914 33.31717300415039, 36.27048110961914 33.31717300415039, 36.24787521362305 33.308048248291016, 36.22311782836914 33.29944610595703, 36.196022033691406 33.2916374206543, 36.16648483276367 33.285011291503906, 36.13444985961914 33.28002166748047, 36.100189208984375 33.27716827392578, 36.063838958740234 33.2769775390625, 36.025856018066406 33.27992630004883, 35.98678207397461 33.286441802978516, 35.94725799560547 33.29685974121094, 35.90799331665039 33.3114013671875, 35.869754791259766 33.33018112182617, 35.83330535888672 33.35319519042969, 35.79939651489258 33.38029861450195, 35.76874542236328 33.41128158569336, 35.74198913574219 33.44580078125, 35.719703674316406 33.48344421386719, 35.70236060546875 33.523746490478516, 35.69034957885742 33.56618118286133, 35.683956146240234 33.610195991211, 35.683387756347656 33.655216217041016, 35.688743591308594 33.70066452026367, 35.70005416870117 33.745948791503906, 35.71727752685547 33.790496826171875, 35.74028015136719 33.833744049072266, 35.768887130737305 33.87512969970703, 35.80277633666992 33.914119720458984, 35.84167098990024 33.95021439859863, 35.8851318359375 33.982933044433594, 35.93274688720703 34.01176071166992, 35.98569869995117 34.03320639697266, 36.04103469848633 34.04960632324219, 36.097957611083984 34.06083679199219, 36.15571594238281 34.06669616699219, 36.2135009765625 34.06709671020508, 36.27048110961914 34.062049865722656, 36.325836181640625 34.05168533325195, 36.37875747680664 34.0362548828125, 36.428524017333984 34.0161247253418, 36.47446823120117 33.99174499511719, 36.51606369018555 33.963653564453125, 36.55286788994043 33.93244552612305, 36.584598541259766 33.89875793457031, 36.611083984375 33.86322784423828, 36.659114837646484 33.751766204833984, 36.648231506347656 33.78914260864258, 36.666648864746094 33.67888673400789, 36.66339251708985 33.644203186035156, 36.65736770629883 33.61118698120117, 36.64737319946289 33.580101013183594, 36.63435745239258 33.55117416381836, 36.61875534057617 33.524559202996095, 36.60099792480469 33.50038146972656, 36.581546783447266 33.478694915771484, 36.560821533203125 33.459495544433594, 36.539276123046875 33.44273376464844, 36.51728439331055 33.42829895019531, 36.495216369628906 33.4160270690918, 36.47336169899414 33.40572738647461, 36.451942443847656 33.397186279296875, 36.4311038208008 33.39019012451172, 36.410945892333984 33.38452599072266, 36.39146423339844 33.38002014160156, 36.371952056884766 33.377540588378906, 36.358367919921875 33.36685562133789, 36.34359359741211 33.356441497802734, 36.32754516606156 33.346282958984375, 36.310115814208984 33.33634948730469, 36.29115676879883 33.326637268066406, 36.27048110961914 33.31717300415039), (36.293643951416016 33.41487503051758, 36.30302940368652 33.42344665527344, 36.31076431274414 33.432228088378906, 36.317153936066404 33.44116633300781, 36.3221435546875 33.45001220703125, 36.333248138427734 33.44987106323242, 36.34634780883789 33.44921875, 36.36006164550781 33.449913024902344, 36.37420654296875 33.452030181884766, 36.38859176635742 33.45567958984375, 36.40300450732422 33.460838317871094, 36.417232513427734 33.46760177612305, 36.43104553222656 33.4759635925293, 36.444213671875 33.48591613769531, 36.465083647461 33.4974250793457, 36.46769332885742 33.51043701171875, 36.4775505065918 33.52487564086914, 36.485843658447266 33.54064178466797, 36.49237060546875 33.55760955810547, 36.496900628051755 33.57563018798828, 36.499244689941406 33.59452438354492, 36.4999195098877 33.614078521728516, 36.4965705871582 33.63403071782226, 36.4912109375 33.654117584228516, 36.48299026489258 33.67396545410156, 36.47184371948242 33.69321823120117, 36.457766371875 33.711448669433594, 36.44081115722656 33.728206634521484, 36.421180725097656 33.74303436279297, 36.39913558959961 33.755455017089844, 36.37508010864258 33.76504135131836, 36.34952163696289 33.77138900756836, 36.32307815551758 33.77416229248047, 36.29646682739258 33.773128509521484, 36.27048110961914 33.76812744140625, 36.245967864499235 33.75910568237305, 36.22383117675781 33.74607849121094, 36.20504379272461 33.7291060307617, 36.19077682495117 33.70806884765625, 36.182865142822266 33.68212127685547, 36.18896484375 33.643131256103516, 36.155029296875 33.66288757324219, 36.12505340576172 33.66989517121191, 36.10976142883008 33.66949899951172, 36.07223129272461 33.664005279541016, 36.04905700683594 33.65452194213867, 36.028385162353516 33.64173126220703, 36.01052093558594 33.62619400024414, 35.995723724365234 33.608428955078125, 35.97842491485957 33.58891296386719, 35.97624969482422 33.56813430786133, 35.97187805175781 33.546566009521484, 35.97117614746094 33.524688720703125, 35.97412109375 33.50297164916992, 35.98060226440043 33.481876373291016, 35.99042892456055 33.46183395385742, 36.003326416015625 33.4432373046875, 36.0189323425293 33.426429748535156, 36.036827087402344 33.411685943603516, 36.05656452575683 33.39920425415039, 36.07758331298828 33.38910675048828, 36.09944534301758 33.38142776489258, 36.121646881103516 33.376129150390625, 36.14374542236328 33.373104095458984, 36.165340423583984 33.3721923828125, 36.18610382080078 33.37318420410156, 36.205780029296875 33.3758659362793, 36.22416305541992 33.3799934387207, 36.24112319946289 33.3853458984375, 36.25657653808594 33.39169692993164, 36.27048110961914 33.39885330200195, 36.27048110961914 33.31717300415039, 36.293643951416016 33.41487503051758))